{
  "type": "FeatureCollection",
  "features": [
    {
      "type": "Feature",
      "properties": {
        "norad_id": 19071,
        "name": "OSCAR 32",
        "group": "nnss",
        "lat": -89.00890855583492,
        "lon": 178.0631866930177,
        "alt_km": 1272.649966202971,
        "timestamp": "2025-12-26T22:28:06.052858+00:00",
        "meta_object_name": "OSCAR 32",
        "meta_object_id": "1988-033B",
        "meta_epoch": "2025-12-26T10:53:58.879680",
        "meta_mean_motion": 13.27955937,
        "meta_eccentricity": 0.01893107,
        "meta_inclination": 90.3209,
        "meta_ra_of_asc_node": 16.9498,
        "meta_arg_of_pericenter": 128.8267,
        "meta_mean_anomaly": 355.8113,
        "meta_ephemeris_type": 0,
        "meta_classification_type": "U",
        "meta_norad_cat_id": 19071,
        "meta_element_set_no": 999,
        "meta_rev_at_epoch": 82447,
        "meta_bstar": 0.0001395573,
        "meta_mean_motion_dot": 7.9e-07,
        "meta_mean_motion_ddot": 0,
        "tle_line1": "1 19071U 88033B   25360.45415370  .00000079  00000+0  13956-3 0  9997",
        "tle_line2": "2 19071  90.3209  16.9498 0189310 128.8267 355.8113 13.27955937824478"
      },
      "geometry": {
        "type": "Point",
        "coordinates": [
          178.0631866930177,
          -89.00890855583492
        ]
      }
    },
    {
      "type": "Feature",
      "properties": {
        "norad_id": 19223,
        "name": "NOVA 2",
        "group": "nnss",
        "lat": -28.660431579262006,
        "lon": -101.73811815239324,
        "alt_km": 1193.258368304737,
        "timestamp": "2025-12-26T22:28:06.052868+00:00",
        "meta_object_name": "NOVA 2",
        "meta_object_id": "1988-052A",
        "meta_epoch": "2025-12-26T16:48:25.235712",
        "meta_mean_motion": 13.22937608,
        "meta_eccentricity": 0.0029415,
        "meta_inclination": 89.9863,
        "meta_ra_of_asc_node": 78.2547,
        "meta_arg_of_pericenter": 338.0829,
        "meta_mean_anomaly": 187.9469,
        "meta_ephemeris_type": 0,
        "meta_classification_type": "U",
        "meta_norad_cat_id": 19223,
        "meta_element_set_no": 999,
        "meta_rev_at_epoch": 81132,
        "meta_bstar": 0.00012528,
        "meta_mean_motion_dot": 6.1e-07,
        "meta_mean_motion_ddot": 0,
        "tle_line1": "1 19223U 88052A   25360.70029208  .00000061  00000+0  12528-3 0  9991",
        "tle_line2": "2 19223  89.9863  78.2547 0029415 338.0829 187.9469 13.22937608811329"
      },
      "geometry": {
        "type": "Point",
        "coordinates": [
          -101.73811815239324,
          -28.660431579262006
        ]
      }
    },
    {
      "type": "Feature",
      "properties": {
        "norad_id": 19419,
        "name": "OSCAR 25",
        "group": "nnss",
        "lat": -30.031277308597357,
        "lon": -159.729558380307,
        "alt_km": 1034.4519574362466,
        "timestamp": "2025-12-26T22:28:06.052878+00:00",
        "meta_object_name": "OSCAR 25",
        "meta_object_id": "1988-074A",
        "meta_epoch": "2025-12-26T13:18:28.068192",
        "meta_mean_motion": 13.42625822,
        "meta_eccentricity": 0.0095317,
        "meta_inclination": 90.0336,
        "meta_ra_of_asc_node": 20.2886,
        "meta_arg_of_pericenter": 205.9306,
        "meta_mean_anomaly": 320.1104,
        "meta_ephemeris_type": 0,
        "meta_classification_type": "U",
        "meta_norad_cat_id": 19419,
        "meta_element_set_no": 999,
        "meta_rev_at_epoch": 82825,
        "meta_bstar": 0.00014338,
        "meta_mean_motion_dot": 9.2e-07,
        "meta_mean_motion_ddot": 0,
        "tle_line1": "1 19419U 88074A   25360.55449153  .00000092  00000+0  14338-3 0  9995",
        "tle_line2": "2 19419  90.0336  20.2886 0095317 205.9306 320.1104 13.42625822828254"
      },
      "geometry": {
        "type": "Point",
        "coordinates": [
          -159.729558380307,
          -30.031277308597357
        ]
      }
    },
    {
      "type": "Feature",
      "properties": {
        "norad_id": 19420,
        "name": "OSCAR 31",
        "group": "nnss",
        "lat": 89.40029106680889,
        "lon": -155.971804735425,
        "alt_km": 1113.7050127709163,
        "timestamp": "2025-12-26T22:28:06.052888+00:00",
        "meta_object_name": "OSCAR 31",
        "meta_object_id": "1988-074B",
        "meta_epoch": "2025-12-26T11:51:56.300832",
        "meta_mean_motion": 13.42586778,
        "meta_eccentricity": 0.0093716,
        "meta_inclination": 90.0354,
        "meta_ra_of_asc_node": 20.6407,
        "meta_arg_of_pericenter": 200.2518,
        "meta_mean_anomaly": 277.3694,
        "meta_ephemeris_type": 0,
        "meta_classification_type": "U",
        "meta_norad_cat_id": 19420,
        "meta_element_set_no": 999,
        "meta_rev_at_epoch": 82835,
        "meta_bstar": 0.00010498,
        "meta_mean_motion_dot": 7e-07,
        "meta_mean_motion_ddot": 0,
        "tle_line1": "1 19420U 88074B   25360.49440163  .00000070  00000+0  10498-3 0  9991",
        "tle_line2": "2 19420  90.0354  20.6407 0093716 200.2518 277.3694 13.42586778828357"
      },
      "geometry": {
        "type": "Point",
        "coordinates": [
          -155.971804735425,
          89.40029106680889
        ]
      }
    }
  ]
}